start=new Date('2023-06-04T00:00:00.000Z').valueOf();
sats=[{"APOAPSIS":"540.628","EPHEMERIS_TYPE":"0","OBJECT_ID":"2022-005AC","BSTAR":"0.00006489100000","MEAN_ANOMALY":"273.6020","NORAD_CAT_ID":"51130","GP_ID":"233144783","DECAY_DATE":null,"MEAN_MOTION":"15.08834901","PERIOD":"95.438","REF_FRAME":"TEME","FILE":"3924324","OBJECT_TYPE":"PAYLOAD","RCS_SIZE":"LARGE","MEAN_ELEMENT_THEORY":"SGP4","CLASSIFICATION_TYPE":"U","ARG_OF_PERICENTER":"86.5115","CENTER_NAME":"EARTH","MEAN_MOTION_DDOT":"0.0000000000000","TIME_SYSTEM":"UTC","LAUNCH_DATE":"2022-01-19","REV_AT_EPOCH":"7625","SITE":"AFETR","MEAN_MOTION_DOT":"0.00000745","EPOCH":"2023-06-03T17:13:00.698880","PERIAPSIS":"538.894","TLE_LINE1":"1 51130U 22005AC  23154.71736920  .00000745  00000-0  64891-4 0  9997","TLE_LINE2":"2 51130  53.2156 153.0589 0001253  86.5115 273.6020 15.08834901 76251","ELEMENT_SET_NO":"999","COUNTRY_CODE":"US","INCLINATION":"53.2156","ECCENTRICITY":"0.00012530","SEMIMAJOR_AXIS":"6917.896","RA_OF_ASC_NODE":"153.0589","OBJECT_NAME":"STARLINK-3395"},{"RCS_SIZE":"LARGE","MEAN_ELEMENT_THEORY":"SGP4","CLASSIFICATION_TYPE":"U","ARG_OF_PERICENTER":"84.1241","APOAPSIS":"540.466","BSTAR":"0.00002044200000","OBJECT_ID":"2022-005AD","EPHEMERIS_TYPE":"0","NORAD_CAT_ID":"51131","MEAN_ANOMALY":"275.9868","GP_ID":"233111725","PERIOD":"95.438","REF_FRAME":"TEME","DECAY_DATE":null,"MEAN_MOTION":"15.08836591","FILE":"3924076","OBJECT_TYPE":"PAYLOAD","SEMIMAJOR_AXIS":"6917.891","OBJECT_NAME":"STARLINK-3388","RA_OF_ASC_NODE":"154.5785","CENTER_NAME":"EARTH","MEAN_MOTION_DDOT":"0.0000000000000","TIME_SYSTEM":"UTC","LAUNCH_DATE":"2022-01-19","REV_AT_EPOCH":"7620","SITE":"AFETR","MEAN_MOTION_DOT":"0.00000038","TLE_LINE2":"2 51131  53.2156 154.5785 0001027  84.1241 275.9868 15.08836591 76206","TLE_LINE1":"1 51131U 22005AD  23154.37879363  .00000038  00000-0  20442-4 0  9998","EPOCH":"2023-06-03T09:05:27.769632","PERIAPSIS":"539.045","COUNTRY_CODE":"US","ELEMENT_SET_NO":"999","ECCENTRICITY":"0.00010270","INCLINATION":"53.2156"},{"PERIAPSIS":"538.949","EPOCH":"2023-06-03T17:07:41.560608","TLE_LINE2":"2 51132  53.2159 153.0751 0001165  85.0226 275.0899 15.08836901 76258","TLE_LINE1":"1 51132U 22005AE  23154.71367547  .00000406  00000-0  43571-4 0  9990","INCLINATION":"53.2159","ECCENTRICITY":"0.00011650","ELEMENT_SET_NO":"999","COUNTRY_CODE":"US","LAUNCH_DATE":"2022-01-19","TIME_SYSTEM":"UTC","CENTER_NAME":"EARTH","MEAN_MOTION_DDOT":"0.0000000000000","MEAN_MOTION_DOT":"0.00000406","REV_AT_EPOCH":"7625","SITE":"AFETR","RA_OF_ASC_NODE":"153.0751","OBJECT_NAME":"STARLINK-3393","SEMIMAJOR_AXIS":"6917.890","DECAY_DATE":null,"MEAN_MOTION":"15.08836901","PERIOD":"95.438","REF_FRAME":"TEME","GP_ID":"233143281","FILE":"3924324","OBJECT_TYPE":"PAYLOAD","APOAPSIS":"540.561","MEAN_ANOMALY":"275.0899","NORAD_CAT_ID":"51132","EPHEMERIS_TYPE":"0","BSTAR":"0.00004357100000","OBJECT_ID":"2022-005AE","CLASSIFICATION_TYPE":"U","ARG_OF_PERICENTER":"85.0226","RCS_SIZE":"LARGE","MEAN_ELEMENT_THEORY":"SGP4"},{"APOAPSIS":"540.505","BSTAR":"0.00002693200000","OBJECT_ID":"2022-005AF","EPHEMERIS_TYPE":"0","NORAD_CAT_ID":"51133","MEAN_ANOMALY":"279.2170","GP_ID":"233144032","PERIOD":"95.438","REF_FRAME":"TEME","MEAN_MOTION":"15.08835469","DECAY_DATE":null,"FILE":"3924324","OBJECT_TYPE":"PAYLOAD","RCS_SIZE":"LARGE","MEAN_ELEMENT_THEORY":"SGP4","CLASSIFICATION_TYPE":"U","ARG_OF_PERICENTER":"80.8944","MEAN_MOTION_DDOT":"0.0000000000000","CENTER_NAME":"EARTH","LAUNCH_DATE":"2022-01-19","TIME_SYSTEM":"UTC","REV_AT_EPOCH":"7625","SITE":"AFETR","MEAN_MOTION_DOT":"0.00000141","TLE_LINE1":"1 51133U 22005AF  23154.70263490  .00000141  00000-0  26932-4 0  9990","TLE_LINE2":"2 51133  53.2157 153.1257 0001078  80.8944 279.2170 15.08835469 76258","EPOCH":"2023-06-03T16:51:47.655360","PERIAPSIS":"539.013","COUNTRY_CODE":"US","ELEMENT_SET_NO":"999","ECCENTRICITY":"0.00010780","INCLINATION":"53.2157","SEMIMAJOR_AXIS":"6917.894","OBJECT_NAME":"STARLINK-3356","RA_OF_ASC_NODE":"153.1257"},{"GP_ID":"233144283","PERIOD":"95.438","REF_FRAME":"TEME","MEAN_MOTION":"15.08834549","DECAY_DATE":null,"FILE":"3924324","OBJECT_TYPE":"PAYLOAD","APOAPSIS":"540.440","OBJECT_ID":"2022-005AG","BSTAR":"0.00002199400000","EPHEMERIS_TYPE":"0","NORAD_CAT_ID":"51134","MEAN_ANOMALY":"286.0383","CLASSIFICATION_TYPE":"U","ARG_OF_PERICENTER":"74.0717","RCS_SIZE":"LARGE","MEAN_ELEMENT_THEORY":"SGP4","TLE_LINE1":"1 51134U 22005AG  23154.67139261  .00000062  00000-0  21994-4 0  9990","TLE_LINE2":"2 51134  53.2154 143.2692 0000980  74.0717 286.0383 15.08834549 76400","PERIAPSIS":"539.084","EPOCH":"2023-06-03T16:06:48.321504","COUNTRY_CODE":"US","ELEMENT_SET_NO":"999","ECCENTRICITY":"0.00009800","INCLINATION":"53.2154","CENTER_NAME":"EARTH","MEAN_MOTION_DDOT":"0.0000000000000","TIME_SYSTEM":"UTC","LAUNCH_DATE":"2022-01-19","REV_AT_EPOCH":"7640","SITE":"AFETR","MEAN_MOTION_DOT":"0.00000062","SEMIMAJOR_AXIS":"6917.897","OBJECT_NAME":"STARLINK-3183","RA_OF_ASC_NODE":"143.2692"},{"RCS_SIZE":"LARGE","MEAN_ELEMENT_THEORY":"SGP4","CLASSIFICATION_TYPE":"U","ARG_OF_PERICENTER":"75.5717","APOAPSIS":"540.424","BSTAR":"0.00004004800000","OBJECT_ID":"2022-005AH","EPHEMERIS_TYPE":"0","NORAD_CAT_ID":"51135","MEAN_ANOMALY":"284.5382","GP_ID":"233145034","REF_FRAME":"TEME","PERIOD":"95.438","DECAY_DATE":null,"MEAN_MOTION":"15.08834918","OBJECT_TYPE":"PAYLOAD","FILE":"3924324","SEMIMAJOR_AXIS":"6917.896","OBJECT_NAME":"STARLINK-3363","RA_OF_ASC_NODE":"153.1440","CENTER_NAME":"EARTH","MEAN_MOTION_DDOT":"0.0000000000000","TIME_SYSTEM":"UTC","LAUNCH_DATE":"2022-01-19","SITE":"AFETR","REV_AT_EPOCH":"7625","MEAN_MOTION_DOT":"0.00000350","TLE_LINE2":"2 51135  53.2157 153.1440 0000959  75.5717 284.5382 15.08834918 76252","TLE_LINE1":"1 51135U 22005AH  23154.69895395  .00000350  00000-0  40048-4 0  9991","EPOCH":"2023-06-03T16:46:29.621280","PERIAPSIS":"539.097","COUNTRY_CODE":"US","ELEMENT_SET_NO":"999","ECCENTRICITY":"0.00009590","INCLINATION":"53.2157"},{"ARG_OF_PERICENTER":"73.6197","CLASSIFICATION_TYPE":"U","MEAN_ELEMENT_THEORY":"SGP4","RCS_SIZE":"LARGE","OBJECT_TYPE":"PAYLOAD","FILE":"3924324","MEAN_MOTION":"15.08834317","DECAY_DATE":null,"PERIOD":"95.438","REF_FRAME":"TEME","GP_ID":"233143782","MEAN_ANOMALY":"286.4908","NORAD_CAT_ID":"51136","EPHEMERIS_TYPE":"0","OBJECT_ID":"2022-005AJ","BSTAR":"0.00002847400000","APOAPSIS":"540.475","RA_OF_ASC_NODE":"153.1387","OBJECT_NAME":"STARLINK-3253","SEMIMAJOR_AXIS":"6917.898","INCLINATION":"53.2156","ECCENTRICITY":"0.00010300","ELEMENT_SET_NO":"999","COUNTRY_CODE":"US","PERIAPSIS":"539.050","EPOCH":"2023-06-03T16:47:52.429632","TLE_LINE1":"1 51136U 22005AJ  23154.69991238  .00000165  00000-0  28474-4 0  9998","TLE_LINE2":"2 51136  53.2156 153.1387 0001030  73.6197 286.4908 15.08834317 76252","MEAN_MOTION_DOT":"0.00000165","REV_AT_EPOCH":"7625","SITE":"AFETR","TIME_SYSTEM":"UTC","LAUNCH_DATE":"2022-01-19","MEAN_MOTION_DDOT":"0.0000000000000","CENTER_NAME":"EARTH"},{"REV_AT_EPOCH":"7626","SITE":"AFETR","MEAN_MOTION_DOT":"-0.00000515","MEAN_MOTION_DDOT":"0.0000000000000","CENTER_NAME":"EARTH","TIME_SYSTEM":"UTC","LAUNCH_DATE":"2022-01-19","ELEMENT_SET_NO":"999","COUNTRY_CODE":"US","INCLINATION":"53.2162","ECCENTRICITY":"0.00017630","EPOCH":"2023-06-03T16:30:35.121600","PERIAPSIS":"538.529","TLE_LINE1":"1 51137U 22005AK  23154.68790650 -.00000515  00000-0 -14267-4 0  9999","TLE_LINE2":"2 51137  53.2162 153.1947 0001763  88.3109 271.8085 15.08838861 76264","SEMIMAJOR_AXIS":"6917.884","RA_OF_ASC_NODE":"153.1947","OBJECT_NAME":"STARLINK-3180","EPHEMERIS_TYPE":"0","BSTAR":"-0.00001426700000","OBJECT_ID":"2022-005AK","MEAN_ANOMALY":"271.8085","NORAD_CAT_ID":"51137","APOAPSIS":"540.968","OBJECT_TYPE":"PAYLOAD","FILE":"3924324","GP_ID":"233143532","DECAY_DATE":null,"MEAN_MOTION":"15.08838861","REF_FRAME":"TEME","PERIOD":"95.438","MEAN_ELEMENT_THEORY":"SGP4","RCS_SIZE":"LARGE","ARG_OF_PERICENTER":"88.3109","CLASSIFICATION_TYPE":"U"},{"RA_OF_ASC_NODE":"153.1604","OBJECT_NAME":"STARLINK-3177","SEMIMAJOR_AXIS":"6917.896","MEAN_MOTION_DOT":"-0.00000190","SITE":"AFETR","REV_AT_EPOCH":"7625","TIME_SYSTEM":"UTC","LAUNCH_DATE":"2022-01-19","MEAN_MOTION_DDOT":"0.0000000000000","CENTER_NAME":"EARTH","INCLINATION":"53.2158","ECCENTRICITY":"0.00011690","ELEMENT_SET_NO":"999","COUNTRY_CODE":"US","EPOCH":"2023-06-03T16:41:11.827392","PERIAPSIS":"538.952","TLE_LINE1":"1 51138U 22005AL  23154.69527578 -.00000190  00000-0  61457-5 0  9990","TLE_LINE2":"2 51138  53.2158 153.1604 0001169  80.2085 279.9039 15.08834946 76251","MEAN_ELEMENT_THEORY":"SGP4","RCS_SIZE":"LARGE","ARG_OF_PERICENTER":"80.2085","CLASSIFICATION_TYPE":"U","MEAN_ANOMALY":"279.9039","NORAD_CAT_ID":"51138","EPHEMERIS_TYPE":"0","OBJECT_ID":"2022-005AL","BSTAR":"0.00000614570000","APOAPSIS":"540.570","OBJECT_TYPE":"PAYLOAD","FILE":"3924324","MEAN_MOTION":"15.08834946","DECAY_DATE":null,"PERIOD":"95.438","REF_FRAME":"TEME","GP_ID":"233144784"},{"MEAN_ELEMENT_THEORY":"SGP4","RCS_SIZE":"LARGE","ARG_OF_PERICENTER":"82.3924","CLASSIFICATION_TYPE":"U","EPHEMERIS_TYPE":"0","BSTAR":"0.00001097000000","OBJECT_ID":"2022-005AM","MEAN_ANOMALY":"277.7190","NORAD_CAT_ID":"51139","APOAPSIS":"540.495","OBJECT_TYPE":"PAYLOAD","FILE":"3924076","GP_ID":"233111726","DECAY_DATE":null,"MEAN_MOTION":"15.08837291","REF_FRAME":"TEME","PERIOD":"95.438","SEMIMAJOR_AXIS":"6917.889","RA_OF_ASC_NODE":"154.4157","OBJECT_NAME":"STARLINK-3172","SITE":"AFETR","REV_AT_EPOCH":"7622","MEAN_MOTION_DOT":"-0.00000113","CENTER_NAME":"EARTH","MEAN_MOTION_DDOT":"0.0000000000000","LAUNCH_DATE":"2022-01-19","TIME_SYSTEM":"UTC","ELEMENT_SET_NO":"999","COUNTRY_CODE":"US","INCLINATION":"53.2158","ECCENTRICITY":"0.00010710","PERIAPSIS":"539.013","EPOCH":"2023-06-03T09:58:27.207552","TLE_LINE1":"1 51139U 22005AM  23154.41559268 -.00000113  00000-0  10970-4 0  9990","TLE_LINE2":"2 51139  53.2158 154.4157 0001071  82.3924 277.7190 15.08837291 76223"}];
